{
    "signature": {
        "version": "1.0",
        "source": "NASA/JPL SBDB (Small-Body DataBase) Query API"
    },
    "fields": [
        "full_name",
        "epoch",
        "e",
        "a",
        "q",
        "i",
        "om",
        "w",
        "ma"
    ],
    "data": [
        [
            "   433 Eros (A898 PA)",
            "2460600.5",
            "0.2227",
            "1.458",
            "1.133",
            "10.83",
            "304.27",
            "178.91",
            "86.67"
        ],
        [
            "   719 Albert (A911 TB)",
            "2460600.5",
            "0.5468",
            "2.636",
            "1.195",
            "11.58",
            "183.86",
            "156.22",
            "148.45"
        ],
        [
            "   887 Alinda (A918 AA)",
            "2460600.5",
            "0.5711",
            "2.473",
            "1.060",
            "9.40",
            "110.42",
            "350.47",
            "340.20"
        ],
        [
            "  1036 Ganymed (A924 UB)",
            "2460600.5",
            "0.5328",
            "2.665",
            "1.245",
            "26.69",
            "215.49",
            "132.50",
            "6.98"
        ],
        [
            "  1221 Amor (1932 EA1)",
            "2460600.5",
            "0.4347",
            "1.92",
            "1.085",
            "11.87",
            "171.26",
            "26.72",
            "271.70"
        ]
    ],
    "count": 36063
}